{"type": "FeatureCollection", "features": [ {"type": "Feature", "properties": {"norad_id": 33731, "name": "FENGYUN 1C DEB", "group": "fengyun-1c-debris", "lat": -14.337897175545013, "lon": 26.95768053795977, "alt_km": 832.3398249387046, "timestamp": "2025-12-27T22:26:48.889954+00:00", "meta": {"OBJECT_NAME": "FENGYUN 1C DEB", "OBJECT_ID": "1999-025DHU", "EPOCH": "2025-12-23T18:42:18.711072", "MEAN_MOTION": 13.95379717, "ECCENTRICITY": 0.012845, "INCLINATION": 99.4443, "RA_OF_ASC_NODE": 20.2634, "ARG_OF_PERICENTER": 26.0646, "MEAN_ANOMALY": 334.6908, "EPHEMERIS_TYPE": 0, "CLASSIFICATION_TYPE": "U", "NORAD_CAT_ID": 33731, "ELEMENT_SET_NO": 999, "REV_AT_EPOCH": 90603, "BSTAR": 0.0015134973, "MEAN_MOTION_DOT": 2.151e-05, "MEAN_MOTION_DDOT": 0}, "tle": {"line1": "1 33731U 99025DHU 25357.77938323  .00002151  00000+0  15135-2 0  9991", "line2": "2 33731  99.4443  20.2634 0128450  26.0646 334.6908 13.95379717906036"}}, "geometry": {"type": "Point", "coordinates": [26.95768053795977, -14.337897175545013]}}, {"type": "Feature", "properties": {"norad_id": 33733, "name": "FENGYUN 1C DEB", "group": "fengyun-1c-debris", "lat": 60.47675265255968, "lon": -75.5859299719248, "alt_km": 725.3821451828826, "timestamp": "2025-12-27T22:26:48.889964+00:00", "meta": {"OBJECT_NAME": "FENGYUN 1C DEB", "OBJECT_ID": "1999-025DHW", "EPOCH": "2025-12-25T04:36:42.103008", "MEAN_MOTION": 14.31235301, "ECCENTRICITY": 0.00793435, "INCLINATION": 99.0984, "RA_OF_ASC_NODE": 85.1049, "ARG_OF_PERICENTER": 135.3372, "MEAN_ANOMALY": 256.7747, "EPHEMERIS_TYPE": 0, "CLASSIFICATION_TYPE": "U", "NORAD_CAT_ID": 33733, "ELEMENT_SET_NO": 999, "REV_AT_EPOCH": 90626, "BSTAR": 0.0039038465, "MEAN_MOTION_DOT": 0.00010649, "MEAN_MOTION_DDOT": 0}, "tle": {"line1": "1 33733U 99025DHW 25359.19215397  .00010649  00000+0  39038-2 0  9999", "line2": "2 33733  99.0984  85.1049 0079343 135.3372 256.7747 14.31235301906261"}}, "geometry": {"type": "Point", "coordinates": [-75.5859299719248, 60.47675265255968]}}, {"type": "Feature", "properties": {"norad_id": 33737, "name": "FENGYUN 1C DEB", "group": "fengyun-1c-debris", "lat": -34.819026255246705, "lon": 8.732238139057799, "alt_km": 804.6524088421693, "timestamp": "2025-12-27T22:26:48.889974+00:00", "meta": {"OBJECT_NAME": "FENGYUN 1C DEB", "OBJECT_ID": "1999-025DJA", "EPOCH": "2025-12-27T01:28:04.548000", "MEAN_MOTION": 14.03060864, "ECCENTRICITY": 0.01282799, "INCLINATION": 98.339, "RA_OF_ASC_NODE": 193.7859, "ARG_OF_PERICENTER": 242.4813, "MEAN_ANOMALY": 240.5257, "EPHEMERIS_TYPE": 0, "CLASSIFICATION_TYPE": "U", "NORAD_CAT_ID": 33737, "ELEMENT_SET_NO": 999, "REV_AT_EPOCH": 88941, "BSTAR": 0.0015578716, "MEAN_MOTION_DOT": 2.565e-05, "MEAN_MOTION_DDOT": 0}, "tle": {"line1": "1 33737U 99025DJA 25361.06116375  .00002565  00000+0  15579-2 0  9990", "line2": "2 33737  98.3390 193.7859 0128279 242.4813 240.5257 14.03060864889419"}}, "geometry": {"type": "Point", "coordinates": [8.732238139057799, -34.819026255246705]}}, {"type": "Feature", "properties": {"norad_id": 33738, "name": "FENGYUN 1C DEB", "group": "fengyun-1c-debris", "lat": -54.1568672492953, "lon": 74.85949471154115, "alt_km": 791.3087167370322, "timestamp": "2025-12-27T22:26:48.889984+00:00", "meta": {"OBJECT_NAME": "FENGYUN 1C DEB", "OBJECT_ID": "1999-025DJB", "EPOCH": "2025-12-24T23:29:13.428096", "MEAN_MOTION": 13.99552043, "ECCENTRICITY": 0.018443, "INCLINATION": 99.1502, "RA_OF_ASC_NODE": 59.0114, "ARG_OF_PERICENTER": 347.7963, "MEAN_ANOMALY": 189.5745, "EPHEMERIS_TYPE": 0, "CLASSIFICATION_TYPE": "U", "NORAD_CAT_ID": 33738, "ELEMENT_SET_NO": 999, "REV_AT_EPOCH": 89407, "BSTAR": 0.0005531895, "MEAN_MOTION_DOT": 8.89e-06, "MEAN_MOTION_DDOT": 0}, "tle": {"line1": "1 33738U 99025DJB 25358.97862764  .00000889  00000+0  55319-3 0  9991", "line2": "2 33738  99.1502  59.0114 0184430 347.7963 189.5745 13.99552043894079"}}, "geometry": {"type": "Point", "coordinates": [74.85949471154115, -54.1568672492953]}}, {"type": "Feature", "properties": {"norad_id": 33740, "name": "FENGYUN 1C DEB", "group": "fengyun-1c-debris", "lat": -37.52926409965411, "lon": 21.122383718917952, "alt_km": 858.9456748201201, "timestamp": "2025-12-27T22:26:48.889994+00:00", "meta": {"OBJECT_NAME": "FENGYUN 1C DEB", "OBJECT_ID": "1999-025DJD", "EPOCH": "2025-12-23T18:18:38.373696", "MEAN_MOTION": 14.12328382, "ECCENTRICITY": 0.00022971, "INCLINATION": 98.6867, "RA_OF_ASC_NODE": 10.3348, "ARG_OF_PERICENTER": 110.3386, "MEAN_ANOMALY": 249.8034, "EPHEMERIS_TYPE": 0, "CLASSIFICATION_TYPE": "U", "NORAD_CAT_ID": 33740, "ELEMENT_SET_NO": 999, "REV_AT_EPOCH": 90302, "BSTAR": 0.00013863115, "MEAN_MOTION_DOT": 2.13e-06, "MEAN_MOTION_DDOT": 0}, "tle": {"line1": "1 33740U 99025DJD 25357.76294414  .00000213  00000+0  13863-3 0  9990", "line2": "2 33740  98.6867  10.3348 0002297 110.3386 249.8034 14.12328382903022"}}, "geometry": {"type": "Point", "coordinates": [21.122383718917952, -37.52926409965411]}}, {"type": "Feature", "properties": {"norad_id": 33741, "name": "FENGYUN 1C DEB", "group": "fengyun-1c-debris", "lat": -46.11860479994549, "lon": 85.79170527370636, "alt_km": 959.6262474868699, "timestamp": "2025-12-27T22:26:48.890003+00:00", "meta": {"OBJECT_NAME": "FENGYUN 1C DEB", "OBJECT_ID": "1999-025DJE", "EPOCH": "2025-12-25T13:10:32.197728", "MEAN_MOTION": 14.09915746, "ECCENTRICITY": 0.0128978, "INCLINATION": 98.5644, "RA_OF_ASC_NODE": 272.5349, "ARG_OF_PERICENTER": 52.1735, "MEAN_ANOMALY": 309.1029, "EPHEMERIS_TYPE": 0, "CLASSIFICATION_TYPE": "U", "NORAD_CAT_ID": 33741, "ELEMENT_SET_NO": 999, "REV_AT_EPOCH": 57043, "BSTAR": 0.0026249, "MEAN_MOTION_DOT": 4.956e-05, "MEAN_MOTION_DDOT": 0}, "tle": {"line1": "1 33741U 99025DJE 25359.54898377  .00004956  00000+0  26249-2 0  9996", "line2": "2 33741  98.5644 272.5349 0128978  52.1735 309.1029 14.09915746570435"}}, "geometry": {"type": "Point", "coordinates": [85.79170527370636, -46.11860479994549]}}, {"type": "Feature", "properties": {"norad_id": 33745, "name": "FENGYUN 1C DEB", "group": "fengyun-1c-debris", "lat": -9.811841807232645, "lon": -141.98252626293473, "alt_km": 788.1987674168158, "timestamp": "2025-12-27T22:26:48.890013+00:00", "meta": {"OBJECT_NAME": "FENGYUN 1C DEB", "OBJECT_ID": "1999-025DJJ", "EPOCH": "2025-12-27T01:17:41.720640", "MEAN_MOTION": 14.2240423, "ECCENTRICITY": 0.00548454, "INCLINATION": 99.1142, "RA_OF_ASC_NODE": 38.6975, "ARG_OF_PERICENTER": 225.4998, "MEAN_ANOMALY": 134.1689, "EPHEMERIS_TYPE": 0, "CLASSIFICATION_TYPE": "U", "NORAD_CAT_ID": 33745, "ELEMENT_SET_NO": 999, "REV_AT_EPOCH": 66205, "BSTAR": 0.0015651565, "MEAN_MOTION_DOT": 3.493e-05, "MEAN_MOTION_DDOT": 0}, "tle": {"line1": "1 33745U 99025DJJ 25361.05395510  .00003493  00000+0  15652-2 0  9991", "line2": "2 33745  99.1142  38.6975 0054845 225.4998 134.1689 14.22404230662056"}}, "geometry": {"type": "Point", "coordinates": [-141.98252626293473, -9.811841807232645]}}, {"type": "Feature", "properties": {"norad_id": 33747, "name": "FENGYUN 1C DEB", "group": "fengyun-1c-debris", "lat": -20.53294592704692, "lon": -86.46752389413636, "alt_km": 779.4124791976265, "timestamp": "2025-12-27T22:26:48.890023+00:00", "meta": {"OBJECT_NAME": "FENGYUN 1C DEB", "OBJECT_ID": "1999-025DJL", "EPOCH": "2025-12-25T00:03:06.904800", "MEAN_MOTION": 14.17556919, "ECCENTRICITY": 0.00908401, "INCLINATION": 99.0948, "RA_OF_ASC_NODE": 93.9706, "ARG_OF_PERICENTER": 183.5383, "MEAN_ANOMALY": 176.5159, "EPHEMERIS_TYPE": 0, "CLASSIFICATION_TYPE": "U", "NORAD_CAT_ID": 33747, "ELEMENT_SET_NO": 999, "REV_AT_EPOCH": 90306, "BSTAR": 0.0026785153, "MEAN_MOTION_DOT": 5.622e-05, "MEAN_MOTION_DDOT": 0}, "tle": {"line1": "1 33747U 99025DJL 25359.00216325  .00005622  00000+0  26785-2 0  9996", "line2": "2 33747  99.0948  93.9706 0090840 183.5383 176.5159 14.17556919903061"}}, "geometry": {"type": "Point", "coordinates": [-86.46752389413636, -20.53294592704692]}}, {"type": "Feature", "properties": {"norad_id": 33748, "name": "FENGYUN 1C DEB", "group": "fengyun-1c-debris", "lat": -51.32842439185345, "lon": 63.81704280705277, "alt_km": 800.0398602125915, "timestamp": "2025-12-27T22:26:48.890033+00:00", "meta": {"OBJECT_NAME": "FENGYUN 1C DEB", "OBJECT_ID": "1999-025DJM", "EPOCH": "2025-12-20T21:21:40.065984", "MEAN_MOTION": 14.32332217, "ECCENTRICITY": 0.0034916, "INCLINATION": 98.5853, "RA_OF_ASC_NODE": 45.9627, "ARG_OF_PERICENTER": 216.6923, "MEAN_ANOMALY": 143.1869, "EPHEMERIS_TYPE": 0, "CLASSIFICATION_TYPE": "U", "NORAD_CAT_ID": 33748, "ELEMENT_SET_NO": 999, "REV_AT_EPOCH": 91510, "BSTAR": 0.00084448, "MEAN_MOTION_DOT": 2.253e-05, "MEAN_MOTION_DDOT": 0}, "tle": {"line1": "1 33748U 99025DJM 25354.89004706  .00002253  00000+0  84448-3 0  9995", "line2": "2 33748  98.5853  45.9627 0034916 216.6923 143.1869 14.32332217915106"}}, "geometry": {"type": "Point", "coordinates": [63.81704280705277, -51.32842439185345]}}, {"type": "Feature", "properties": {"norad_id": 35088, "name": "FENGYUN 1C DEB", "group": "fengyun-1c-debris", "lat": -1.1394041740646883, "lon": 170.2743468355576, "alt_km": 1030.1520744141098, "timestamp": "2025-12-27T22:26:48.890043+00:00", "meta": {"OBJECT_NAME": "FENGYUN 1C DEB", "OBJECT_ID": "1999-025DJQ", "EPOCH": "2025-12-26T17:32:53.221920", "MEAN_MOTION": 14.1243137, "ECCENTRICITY": 0.02653794, "INCLINATION": 94.6232, "RA_OF_ASC_NODE": 169.5584, "ARG_OF_PERICENTER": 159.9534, "MEAN_ANOMALY": 201.2314, "EPHEMERIS_TYPE": 0, "CLASSIFICATION_TYPE": "U", "NORAD_CAT_ID": 35088, "ELEMENT_SET_NO": 999, "REV_AT_EPOCH": 58997, "BSTAR": 0.0074240562, "MEAN_MOTION_DOT": 0.00019153, "MEAN_MOTION_DDOT": 0}, "tle": {"line1": "1 35088U 99025DJQ 25360.73117155  .00019153  00000+0  74241-2 0  9993", "line2": "2 35088  94.6232 169.5584 0265379 159.9534 201.2314 14.12431370589975"}}, "geometry": {"type": "Point", "coordinates": [170.2743468355576, -1.1394041740646883]}}]}